{
  "type": "FeatureCollection",
  "features": [
    {
      "type": "Feature",
      "properties": {
        "norad_id": 33412,
        "name": "COSMO-SKYMED 3",
        "group": "resource",
        "lat": 70.38232149628267,
        "lon": 164.0341048544767,
        "alt_km": 551.654078778337,
        "timestamp": "2025-12-02T13:52:16.932369+00:00",
        "meta_object_name": "COSMO-SKYMED 3",
        "meta_object_id": "2008-054A",
        "meta_epoch": "2025-12-02T07:10:12.110592",
        "meta_mean_motion": 15.05197013,
        "meta_eccentricity": 0.00152797,
        "meta_inclination": 97.8475,
        "meta_ra_of_asc_node": 186.5154,
        "meta_arg_of_pericenter": 208.6162,
        "meta_mean_anomaly": 151.4227,
        "meta_ephemeris_type": 0,
        "meta_classification_type": "U",
        "meta_norad_cat_id": 33412,
        "meta_element_set_no": 999,
        "meta_rev_at_epoch": 92730,
        "meta_bstar": 0.0003722598,
        "meta_mean_motion_dot": 5.259e-05,
        "meta_mean_motion_ddot": 0,
        "tle_line1": "1 33412U 08054A   25336.29875128  .00005259  00000+0  37226-3 0  9994",
        "tle_line2": "2 33412  97.8475 186.5154 0015279 208.6162 151.4227 15.05197013927309"
      },
      "geometry": {
        "type": "Point",
        "coordinates": [
          164.0341048544767,
          70.38232149628267
        ]
      }
    },
    {
      "type": "Feature",
      "properties": {
        "norad_id": 33446,
        "name": "YAOGAN-4",
        "group": "resource",
        "lat": 19.93621614311358,
        "lon": 89.67090467729388,
        "alt_km": 630.819092080832,
        "timestamp": "2025-12-02T13:52:16.932379+00:00",
        "meta_object_name": "YAOGAN-4",
        "meta_object_id": "2008-061A",
        "meta_epoch": "2025-12-02T06:40:27.864192",
        "meta_mean_motion": 14.82628721,
        "meta_eccentricity": 0.00144944,
        "meta_inclination": 97.9168,
        "meta_ra_of_asc_node": 266.481,
        "meta_arg_of_pericenter": 358.2304,
        "meta_mean_anomaly": 1.8855,
        "meta_ephemeris_type": 0,
        "meta_classification_type": "U",
        "meta_norad_cat_id": 33446,
        "meta_element_set_no": 999,
        "meta_rev_at_epoch": 91648,
        "meta_bstar": 0.00026740206,
        "meta_mean_motion_dot": 2.104e-05,
        "meta_mean_motion_ddot": 0,
        "tle_line1": "1 33446U 08061A   25336.27810028  .00002104  00000+0  26740-3 0  9990",
        "tle_line2": "2 33446  97.9168 266.4810 0014494 358.2304   1.8855 14.82628721916482"
      },
      "geometry": {
        "type": "Point",
        "coordinates": [
          89.67090467729388,
          19.93621614311358
        ]
      }
    },
    {
      "type": "Feature",
      "properties": {
        "norad_id": 33492,
        "name": "GOSAT (IBUKI)",
        "group": "resource",
        "lat": 43.015165980358276,
        "lon": 77.70929671743559,
        "alt_km": 664.8073452963454,
        "timestamp": "2025-12-02T13:52:16.932389+00:00",
        "meta_object_name": "GOSAT (IBUKI)",
        "meta_object_id": "2009-002A",
        "meta_epoch": "2025-12-02T07:07:41.344320",
        "meta_mean_motion": 14.67547932,
        "meta_eccentricity": 9.941e-05,
        "meta_inclination": 98.0766,
        "meta_ra_of_asc_node": 85.0456,
        "meta_arg_of_pericenter": 83.9831,
        "meta_mean_anomaly": 276.1487,
        "meta_ephemeris_type": 0,
        "meta_classification_type": "U",
        "meta_norad_cat_id": 33492,
        "meta_element_set_no": 999,
        "meta_rev_at_epoch": 90258,
        "meta_bstar": 0.00023549334,
        "meta_mean_motion_dot": 1.288e-05,
        "meta_mean_motion_ddot": 0,
        "tle_line1": "1 33492U 09002A   25336.29700630  .00001288  00000+0  23549-3 0  9992",
        "tle_line2": "2 33492  98.0766  85.0456 0000994  83.9831 276.1487 14.67547932902588"
      },
      "geometry": {
        "type": "Point",
        "coordinates": [
          77.70929671743559,
          43.015165980358276
        ]
      }
    },
    {
      "type": "Feature",
      "properties": {
        "norad_id": 35681,
        "name": "DEIMOS-1",
        "group": "resource",
        "lat": -31.405496587052458,
        "lon": -47.09251302542448,
        "alt_km": 652.21131370904,
        "timestamp": "2025-12-02T13:52:16.932400+00:00",
        "meta_object_name": "DEIMOS-1",
        "meta_object_id": "2009-041A",
        "meta_epoch": "2025-12-02T08:01:49.848672",
        "meta_mean_motion": 14.7492654,
        "meta_eccentricity": 0.00026654,
        "meta_inclination": 97.7145,
        "meta_ra_of_asc_node": 137.4228,
        "meta_arg_of_pericenter": 98.4794,
        "meta_mean_anomaly": 261.6718,
        "meta_ephemeris_type": 0,
        "meta_classification_type": "U",
        "meta_norad_cat_id": 35681,
        "meta_element_set_no": 999,
        "meta_rev_at_epoch": 87786,
        "meta_bstar": 0.00015613794,
        "meta_mean_motion_dot": 1.001e-05,
        "meta_mean_motion_ddot": 0,
        "tle_line1": "1 35681U 09041A   25336.33460473  .00001001  00000+0  15614-3 0  9997",
        "tle_line2": "2 35681  97.7145 137.4228 0002665  98.4794 261.6718 14.74926540877864"
      },
      "geometry": {
        "type": "Point",
        "coordinates": [
          -47.09251302542448,
          -31.405496587052458
        ]
      }
    },
    {
      "type": "Feature",
      "properties": {
        "norad_id": 35682,
        "name": "DUBAISAT-1",
        "group": "resource",
        "lat": 20.302348652865057,
        "lon": -69.61766065713879,
        "alt_km": 653.6841579427864,
        "timestamp": "2025-12-02T13:52:16.932411+00:00",
        "meta_object_name": "DUBAISAT-1",
        "meta_object_id": "2009-041B",
        "meta_epoch": "2025-12-02T06:38:11.473152",
        "meta_mean_motion": 14.74555132,
        "meta_eccentricity": 0.00102314,
        "meta_inclination": 97.9785,
        "meta_ra_of_asc_node": 107.1112,
        "meta_arg_of_pericenter": 350.1032,
        "meta_mean_anomaly": 9.9974,
        "meta_ephemeris_type": 0,
        "meta_classification_type": "U",
        "meta_norad_cat_id": 35682,
        "meta_element_set_no": 999,
        "meta_rev_at_epoch": 87607,
        "meta_bstar": 0.00025547787,
        "meta_mean_motion_dot": 1.652e-05,
        "meta_mean_motion_ddot": 0,
        "tle_line1": "1 35682U 09041B   25336.27652168  .00001652  00000+0  25548-3 0  9994",
        "tle_line2": "2 35682  97.9785 107.1112 0010231 350.1032   9.9974 14.74555132876078"
      },
      "geometry": {
        "type": "Point",
        "coordinates": [
          -69.61766065713879,
          20.302348652865057
        ]
      }
    },
    {
      "type": "Feature",
      "properties": {
        "norad_id": 35931,
        "name": "OCEANSAT-2",
        "group": "resource",
        "lat": -15.134400964496846,
        "lon": 155.9673222292914,
        "alt_km": 906.4660464997351,
        "timestamp": "2025-12-02T13:52:16.932421+00:00",
        "meta_object_name": "OCEANSAT-2",
        "meta_object_id": "2009-051A",
        "meta_epoch": "2025-12-02T07:47:46.448160",
        "meta_mean_motion": 13.99626831,
        "meta_eccentricity": 0.00166567,
        "meta_inclination": 98.2232,
        "meta_ra_of_asc_node": 337.9813,
        "meta_arg_of_pericenter": 72.0793,
        "meta_mean_anomaly": 288.2188,
        "meta_ephemeris_type": 0,
        "meta_classification_type": "U",
        "meta_norad_cat_id": 35931,
        "meta_element_set_no": 999,
        "meta_rev_at_epoch": 85179,
        "meta_bstar": -7.8905653e-05,
        "meta_mean_motion_dot": -1.53e-06,
        "meta_mean_motion_ddot": 0,
        "tle_line1": "1 35931U 09051A   25336.32484315 -.00000153  00000+0 -78906-4 0  9999",
        "tle_line2": "2 35931  98.2232 337.9813 0016656  72.0793 288.2188 13.99626831851790"
      },
      "geometry": {
        "type": "Point",
        "coordinates": [
          155.9673222292914,
          -15.134400964496846
        ]
      }
    },
    {
      "type": "Feature",
      "properties": {
        "norad_id": 35946,
        "name": "WORLDVIEW-2 (WV-2)",
        "group": "resource",
        "lat": 6.466777231799372,
        "lon": 46.835613273074316,
        "alt_km": 767.9677244811865,
        "timestamp": "2025-12-02T13:52:16.932431+00:00",
        "meta_object_name": "WORLDVIEW-2 (WV-2)",
        "meta_object_id": "2009-055A",
        "meta_epoch": "2025-12-02T05:29:21.270624",
        "meta_mean_motion": 14.37644788,
        "meta_eccentricity": 0.00054406,
        "meta_inclination": 98.4773,
        "meta_ra_of_asc_node": 47.4599,
        "meta_arg_of_pericenter": 92.0204,
        "meta_mean_anomaly": 268.1606,
        "meta_ephemeris_type": 0,
        "meta_classification_type": "U",
        "meta_norad_cat_id": 35946,
        "meta_element_set_no": 999,
        "meta_rev_at_epoch": 84734,
        "meta_bstar": 0.00010167271,
        "meta_mean_motion_dot": 2.62e-06,
        "meta_mean_motion_ddot": 0,
        "tle_line1": "1 35946U 09055A   25336.22871841  .00000262  00000+0  10167-3 0  9995",
        "tle_line2": "2 35946  98.4773  47.4599 0005440  92.0204 268.1606 14.37644788847342"
      },
      "geometry": {
        "type": "Point",
        "coordinates": [
          46.835613273074316,
          6.466777231799372
        ]
      }
    }
  ]
}